COSMOS 1408             
1 13552U 82092A   22003.90045584  .00002401  00000-0  77258-4 0  9999
2 13552  82.5734  73.7799 0026650 334.7397  25.2538 15.31349869  7544
